BEIDOU G3               
1 36590U 10024A   17251.75393157 -.00000369  00000-0  00000-0 0  9995
2 36590   1.4000  27.2294 0005882 313.2369  29.5089  1.00275010 26654
BADR-5                  
1 36592U 10025A   17252.25743944  .00000130  00000-0  00000-0 0  9992
2 36592   0.0123 163.6975 0005124  14.1783 289.2800  1.00272013 21105
COMS 1                  
1 36744U 10032A   17252.27896937 -.00000358  00000-0  00000-0 0  9995
2 36744   0.0211 111.3167 0000784  58.8969  46.9561  1.00273229 18976
ARABSAT-5A              
1 36745U 10032B   17252.25743944  .00000139  00000-0  00000-0 0  9999
2 36745   0.0554   0.4179 0003194 179.1592 292.1060  1.00268927 26534
ECHOSTAR 15             
1 36792U 10034A   17251.71299352 -.00000296  00000-0  00000+0 0  9996
2 36792   0.0528 294.6557 0002158 248.2959   0.0344  1.00269238 26276
NILESAT 201             
1 36830U 10037A   17252.23660419 -.00000072  00000-0  00000-0 0  9999
2 36830   0.0433 186.0929 0004980 328.7129 271.8505  1.00271960 26248
RASCOM-QAF 1R           
1 36831U 10037B   17252.02455617  .00000005  00000-0  00000+0 0  9993
2 36831   0.0068 147.1751 0004034  34.1926 178.6440  1.00272133 26174
CHINASAT 6A (ZX 6A)     
1 37150U 10042A   17252.49025611 -.00000368  00000-0  00000+0 0  9995
2 37150   0.0392 250.1584 0001227 298.5880 101.5506  1.00271728 25787
QZS-1 (MICHIBIKI)       
1 37158U 10045A   17251.71290696 -.00000186  00000-0  00000+0 0  9995
2 37158  40.8840 158.1170 0753867 270.6592 311.2880  1.00253594 25593
XM-5                    
1 37185U 10053A   17252.17479909 -.00000218  00000-0  00000-0 0  9998
2 37185   0.0208 162.1344 0001564 181.3267 342.6697  1.00269743 25377
BSAT-3B                 
1 37207U 10056B   17252.05604883 -.00000364  00000-0  00000+0 0  9995
2 37207   0.0916 298.4662 0001962 318.9357 220.9389  1.00271830 25156
BEIDOU G4               
1 37210U 10057A   17252.23277597 -.00000126  00000-0  00000-0 0  9995
2 37210   0.8397  50.7583 0006330 166.1809  15.2590  1.00273517 25176
SKYTERRA 1              
1 37218U 10061A   17251.23740637 -.00000130  00000-0  00000-0 0  9992
2 37218   3.1228 331.6154 0005939 180.5104 179.5119  1.00272485 25084
ZHONGXING-20A           
1 37234U 10064A   17252.16894803 -.00000352  00000-0  00000-0 0  9997
2 37234   0.0348 259.2125 0001460  25.2501 254.6137  1.00270038 24913
HYLAS 1                 
1 37237U 10065A   17252.21504424 -.00000247  00000-0  00000-0 0  9997
2 37237   0.0220 290.1840 0001697 253.7357 208.4863  1.00269527 24860
INTELSAT 17 (IS-17)     
1 37238U 10065B   17252.42198764 -.00000016  00000-0  00000+0 0  9990
2 37238   0.0279 218.1523 0002743 313.4015  35.0191  1.00272647 24800
EUTELSAT KA-SAT 9A      
1 37258U 10069A   17251.01032999  .00000048  00000-0  00000-0 0  9992
2 37258   0.0444 272.6062 0003171 266.0330 181.3734  1.00271172 24695
HISPASAT 1E             
1 37264U 10070A   17252.38797777 -.00000230  00000-0  00000+0 0  9997
2 37264   0.0335 123.2579 0005483  45.7396 289.3190  1.00270650 24557
KOREASAT 6              
1 37265U 10070B   17251.97682803 -.00000376  00000-0  00000+0 0  9996
2 37265   0.0127 108.0534 0002103  66.2724 281.5573  1.00272716 24563
INTELSAT NEW DAWN       
1 37392U 11016A   17252.25257743  .00000141  00000-0  00000-0 0  9991
2 37392   0.0393 245.0316 0000915 342.8511 244.3292  1.00272580 21184
YAHSAT 1A               
1 37393U 11016B   17252.24285639  .00000087  00000-0  00000-0 0  9995
2 37393   0.0143 160.2554 0002118  23.0317 305.1134  1.00271810 10295
TELSTAR 14R             
1 37602U 11021A   17252.21450556 -.00000294  00000-0  00000-0 0  9994
2 37602   0.0480 312.6047 0000685 305.5723 104.5213  1.00272659 23732
GSAT-8                  
1 37605U 11022A   17252.11646331  .00000070  00000-0  00000-0 0  9996
2 37605   0.0224 115.5464 0005009 137.1260 192.6788  1.00272616 21099
ST-2                    
1 37606U 11022B   17252.22827375 -.00000226  00000-0  00000-0 0  9992
2 37606   0.0107 133.4553 0001532  48.1657 337.0497  1.00271456 23158
CHINASAT 10 (ZX 10)     
1 37677U 11026A   17252.24268407 -.00000367  00000-0  00000-0 0  9997
2 37677   0.0499 276.1719 0004926 257.6471  12.5633  1.00272077 22853
TIANLIAN 1-02           
1 37737U 11032A   17252.27129933  .00000016  00000-0  00000-0 0  9994
2 37737   2.7567  77.0458 0005602 162.6511  23.2272  1.00273365 22607
GSAT-12                 
1 37746U 11034A   17252.22827375 -.00000179  00000-0  00000+0 0  9996
2 37746   0.0124 138.6573 0005994 324.9720  50.0496  1.00271051 22839
SES-3                   
1 37748U 11035A   17252.41216516 -.00000116  00000-0  00000+0 0  9990
2 37748   0.0495 304.2022 0002197 213.9769 235.8527  1.00271162 22587
KAZSAT-2                
1 37749U 11035B   17252.41229837 -.00000212  00000-0  00000+0 0  9998
2 37749   0.0424 312.8680 0001369 246.4935  24.2360  1.00271090 22452
ASTRA 1N                
1 37775U 11041A   17252.22198676  .00000105  00000-0  00000-0 0  9990
2 37775   0.0587 335.2201 0002371 140.9213 331.4257  1.00271605 12426
BSAT-3C (JCSAT-110R)    
1 37776U 11041B   17252.05604883 -.00000365  00000-0  00000-0 0  9993
2 37776   0.0454 286.5894 0000390 166.6088  25.2624  1.00272249 18382
PAKSAT-1R               
1 37779U 11042A   17252.25257743  .00000139  00000-0  00000-0 0  9996
2 37779   0.0335 284.2604 0003132 258.2177 294.9382  1.00269210 22364
CHINASAT 1A (ZX 1A)     
1 37804U 11047A   17252.48373190 -.00000351  00000-0  00000+0 0  9996
2 37804   0.0470 244.0332 0001772 351.5050  57.3671  1.00271201 21960
COSMOS 2473             
1 37806U 11048A   17251.11705888 -.00000121  00000-0  00000+0 0  9996
2 37806   0.0580 109.2954 0001469  65.7756 200.9461  1.00272060 21941
SES-2                   
1 37809U 11049A   17252.35813199 -.00000210  00000-0  00000+0 0  9991
2 37809   0.0453 293.1257 0002292 228.4250 228.9779  1.00271637 21901
ARABSAT-5C              
1 37810U 11049B   17252.38101569  .00000109  00000-0  00000+0 0  9993
2 37810   0.0638  13.2569 0002791 154.1101 338.4048  1.00273606 21790
EUTELSAT 7 WEST A       
1 37816U 11051A   17252.05277842 -.00000074  00000-0  00000-0 0  9997
2 37816   0.0815  47.3817 0005445 136.7210 175.9058  1.00271806 21787
QUETZSAT 1              
1 37826U 11054A   17252.28521509 -.00000256  00000-0  00000+0 0  9999
2 37826   0.0594 313.9467 0002685 203.0707 217.1934  1.00271320 21982
INTELSAT 18 (IS-18)     
1 37834U 11056A   17252.26622411  .00000038  00000-0  00000-0 0  9990
2 37834   0.0204 169.0061 0002020  11.8909  83.4264  1.00270883 21827
EUTELSAT 16A            
1 37836U 11057A   17252.22632875  .00000090  00000-0  00000-0 0  9992
2 37836   0.0689  17.7322 0004287 153.7618 274.4282  1.00272913 13880
VIASAT-1                
1 37843U 11059A   17252.13799362 -.00000037  00000-0  00000+0 0  9998
2 37843   0.0221 162.1276 0002754   8.3217 112.4986  1.00270108 22156
ASIASAT 7               
1 37933U 11069A   17252.49166517 -.00000348  00000-0  00000+0 0  9993
2 37933   0.0091 200.4566 0001995 301.3485 129.3729  1.00270456 21346
LUCH 5A                 
1 37951U 11074B   17252.49835253 -.00000059  00000-0  00000+0 0  9998
2 37951   1.5925 173.3101 0001989   3.1075 158.6711  1.00272767 21079
NIGCOMSAT 1R            
1 38014U 11077A   17252.43170961  .00000130  00000-0  00000+0 0  9993
2 38014   0.0522 314.6159 0001464 219.6186  12.3778  1.00274574 20914
FENGYUN 2F              
1 38049U 12002A   17252.22819797 -.00000370  00000-0  00000-0 0  9992
2 38049   1.8804  78.3785 0003309 229.0590 234.6575  1.00282630 20777
SES-4                   
1 38087U 12007A   17252.26785434 -.00000182  00000-0  00000-0 0  9994
2 38087   0.0184  39.6836 0002243 130.7662 252.4839  1.00271715 20146
BEIDOU G5               
1 38091U 12008A   17252.15205935  .00000042  00000-0  00000-0 0  9995
2 38091   2.3527  57.6168 0003447 201.0621 203.1817  1.00275857 20363
INTELSAT 22 (IS-22)     
1 38098U 12011A   17251.83287676 -.00000073  00000-0  00000-0 0  9997
2 38098   0.0188  41.4588 0002174 147.1926 171.3575  1.00271660 19711
APSTAR 7                
1 38107U 12013A   17252.23313258 -.00000116  00000-0  00000-0 0  9999
2 38107   0.0350  93.6856 0002627  73.0041 342.2347  1.00272543 20054
YAHSAT 1B               
1 38245U 12016A   17251.90076140  .00000113  00000-0  00000+0 0  9999
2 38245   0.0232 155.3463 0001459  17.4895 187.1663  1.00270348 19806
JCSAT-13                
1 38331U 12023A   17251.68910570 -.00000370  00000-0  00000+0 0  9998
2 38331   0.0173 169.5998 0002233  12.2749 178.1244  1.00271000 19450
VINASAT-2               
1 38332U 12023B   17252.27896937 -.00000343  00000-0  00000-0 0  9996
2 38332   0.0437 311.6002 0001790 217.4651  51.7173  1.00269596 14547
NIMIQ 6                 
1 38342U 12026A   17252.28499211 -.00000188  00000-0  00000+0 0  9991
2 38342   0.0509 292.4339 0002799 238.4015 189.1824  1.00272463 19488
CHINASAT 2A (ZX 2A)     
1 38352U 12028A   17252.22341196 -.00000308  00000-0  00000-0 0  9991
2 38352   0.0273 239.5973 0002730  75.4617 212.0915  1.00274008 19265
INTELSAT 19 (IS-19)     
1 38356U 12030A   17251.57277197 -.00000070  00000-0  00000-0 0  9990
2 38356   0.0142  58.7991 0002832 109.6077 191.6120  1.00272131 18341
ECHOSTAR 17             
1 38551U 12035A   17251.33201610 -.00000089  00000-0  00000+0 0  9992
2 38551   0.0181 146.1460 0002004  23.8326 190.0375  1.00271758 19002
METEOSAT-10 (MSG-3)     
1 38552U 12035B   17252.03039125 -.00000011  00000-0  00000-0 0  9997
2 38552   0.8377   2.4859 0002224 161.2193 196.3155  1.00281780 18771
SES-5                   
1 38652U 12036A   17252.06643334  .00000020  00000-0  00000-0 0  9994
2 38652   0.0464 266.3761 0002032 261.3787 209.4537  1.00271918 12385
TIANLIAN 1-03           
1 38730U 12040A   17252.00331979  .00000058  00000-0  00000-0 0  9990
2 38730   0.0943 254.0459 0004200 269.9579 196.0220  1.00269212 16595
